P/2010 U1 (Boattini),e,8.2143,280.7156,85.9067,6.511690,0.0593149,0.24806743,236.7295,12/27.0/2020,2000,g  9.5,4.0
# From MPC119994
C/2010 U3 (Boattini),e,55.5219,43.0317,88.0702,2397,0.0000084,0.99647655,0.0000,02/25.8636/2019,2000,g  1.0,4.0
# From MPC 79021
P/2010 UH55 (Spacewatch),e,8.0450,232.9825,225.1852,6.651223,0.0574582,0.56347434,203.7015,12/27.0/2020,2000,g 11.0,4.0
# From MPC 75009
P/2010 WK (LINEAR),e,11.4005,11.3162,40.9864,5.760403,0.0712894,0.68979474,267.0785,12/27.0/2020,2000,g 14.5,2.0
# From MPC 82317
P/2011 A2 (Scotti),e,4.4751,54.6761,94.5288,3.105364,0.1801089,0.49943057,298.8220,12/27.0/2020,2000,g 16.5,4.0
# From MPC 84021
P/2011 C2 (Gibbs),e,10.8850,12.1241,160.9958,7.414070,0.0488224,0.26897911,160.2266,12/27.0/2020,2000,g  9.0,4.0
# From MPC 79866
P/2011 FR143 (Lemmon),e,15.9866,190.9507,350.1261,6.857008,0.0548911,0.45096375,196.9041,12/27.0/2020,2000,g 14.0,2.0
# From MPC 82317
P/2011 JB15 (Spacewatch-Boattini),e,19.1466,153.5931,111.0046,7.354669,0.0494151,0.31798161,161.0963,12/27.0/2020,2000,g  9.0,4.0
# From MPEC 2020-AA5
C/2011 KP36 (Spacewatch),e,18.9845,173.2949,180.6639,38.90154,0.0040621,0.87456112,6.8010,12/27.0/2020,2000,g  4.5,4.0
# From MPC 87913
P/2011 N1 (ASH),e,35.7152,77.6012,330.3372,6.249963,0.0630794,0.54372473,198.3373,12/27.0/2020,2000,g 11.5,4.0
# From MPC 75714
P/2011 NO1 (Elenin),e,15.2488,295.7924,263.8221,5.523572,0.0759231,0.77484213,275.3466,12/27.0/2020,2000,g 15.0,4.0
# From MPC 82318
P/2011 P1 (McNaught),e,5.6583,4.2391,348.8999,7.468234,0.0482922,0.32705569,184.1567,12/27.0/2020,2000,g  9.0,4.0
# From MPC 77806
P/2011 Q3 (McNaught),e,6.0569,32.0252,310.9782,4.970374,0.0889448,0.53258277,306.5904,12/27.0/2020,2000,g 13.5,4.0
# From MPC 98558
P/2011 S1 (Gibbs),e,2.6840,218.8984,192.4925,8.587545,0.0391652,0.20024765,91.2433,12/27.0/2020,2000,g  8.0,4.0
# From MPC 79022
P/2011 UA134 (Spacewatch-PANSTARRS),e,10.4424,40.4170,32.4511,5.604475,0.0742851,0.62929199,247.4941,12/27.0/2020,2000,g 17.5,4.0
# From MPC 77406
P/2011 V1 (Boattini),e,7.3767,46.8447,269.2560,3.854929,0.1302205,0.55062151,106.3689,12/27.0/2020,2000,g 15.5,4.0
# From MPC 82718
P/2011 W1 (PANSTARRS),e,3.7187,161.7906,282.7390,4.660294,0.0979680,0.28710940,320.0554,12/27.0/2020,2000,g 11.5,4.0
# From MPC 79342
P/2011 Y2 (Boattini),e,6.3714,309.3686,131.9265,6.239726,0.0632348,0.70928217,203.5042,12/27.0/2020,2000,g 15.0,4.0
# From MPC 94669
P/2012 B1 (PANSTARRS),e,7.6149,36.2035,162.5775,6.528029,0.0590923,0.40969262,160.5684,12/27.0/2020,2000,g  9.0,4.0
# From MPC 78590
P/2012 C3 (PANSTARRS),e,9.0920,135.3677,344.9542,9.748681,0.0323806,0.63011148,359.9758,10/06.0/2011,2000,g 13.0,4.0
# From MPC 84931
P/2012 F2 (PANSTARRS),e,14.7233,227.0533,33.2640,6.329005,0.0619015,0.54266038,174.2403,12/27.0/2020,2000,g 12.0,4.0
# From MPC 79344
P/2012 G1 (PANSTARRS),e,11.6925,282.5440,286.1149,4.172871,0.1156250,0.38072240,359.9500,06/01.0/2012,2000,g 15.0,4.0
# From MPC 80898
P/2012 K3 (Gibbs),e,13.1946,125.8086,172.1563,3.624940,0.1428081,0.42344844,71.0463,12/27.0/2020,2000,g 15.0,4.0
# From MPC 88326
P/2012 NJ (La Sagra),e,84.6601,315.5468,338.3331,8.459530,0.0400576,0.84732888,124.9328,12/27.0/2020,2000,g 14.5,4.0
# From MPC 81470
P/2012 O1 (McNaught),e,7.4324,91.9817,238.2231,3.540280,0.1479611,0.59455675,98.4735,12/27.0/2020,2000,g 17.5,4.0
# From MPC 80899
P/2012 O2 (McNaught),e,24.4864,120.6789,183.4110,3.623230,0.1429092,0.53278902,85.8702,12/27.0/2020,2000,g 17.0,4.0
# From MPC 82720
P/2012 O3 (McNaught),e,16.6149,336.4108,344.7134,4.574555,0.1007351,0.64696237,307.7428,12/27.0/2020,2000,g 16.5,4.0
# From MPC 82720
P/2012 S2 (La Sagra),e,8.6869,51.1923,312.4960,4.411809,0.1063602,0.69121800,327.1577,12/27.0/2020,2000,g 17.0,4.0
# From MPC 82320
P/2012 T2 (PANSTARRS),e,12.5568,73.7276,310.4306,5.736990,0.0717262,0.16089584,201.4199,12/27.0/2020,2000,g 10.0,4.0
# From MPC 80900
P/2012 T3 (PANSTARRS),e,9.5683,114.4070,195.4511,6.152205,0.0645889,0.61722987,204.1717,12/27.0/2020,2000,g 15.0,4.0
# From MPC 87914
P/2012 TK8 (Tenagra),e,6.3403,288.9670,127.9629,4.127908,0.1175193,0.27425373,324.4085,12/27.0/2020,2000,g 13.0,4.0
# From MPC 82720
P/2012 U2 (PANSTARRS),e,10.7507,185.2803,228.3038,7.141728,0.0516415,0.49797745,153.4154,12/27.0/2020,2000,g 12.5,4.0
# From MPC 84024
P/2012 US27 (Siding Spring),e,39.3335,49.1731,0.8136,5.166374,0.0839316,0.64746808,242.8890,12/27.0/2020,2000,g 13.5,4.0
# From MPC 82721
P/2012 WA34 (Lemmon-PANSTARRS),e,6.1089,94.3829,353.4854,4.755314,0.0950463,0.34399213,272.9608,12/27.0/2020,2000,g 13.5,4.0
# From MPC 84024
P/2013 A2 (Scotti),e,3.3613,355.8117,134.5366,4.014078,0.1225534,0.45442618,353.7780,12/27.0/2020,2000,g 15.5,4.0
# From MPC 82721
P/2013 AL76 (Catalina),e,144.8251,145.9660,27.1142,6.497608,0.0595078,0.68611162,174.9049,12/27.0/2020,2000,g 16.0,4.0
# From MPC 88695
P/2013 EW90 (Tenagra),e,31.7890,160.2946,346.3287,4.116431,0.1180111,0.19491540,354.0215,12/27.0/2020,2000,g 12.0,4.0
# From MPC 91612
P/2013 G1 (Kowalski),e,5.4671,221.4014,51.3966,6.887976,0.0545214,0.51308882,140.1472,12/27.0/2020,2000,g 11.0,4.0
# From MPC 84025
P/2013 G4 (PANSTARRS),e,5.9162,339.6417,214.7044,4.439559,0.1053645,0.40959137,303.1555,12/27.0/2020,2000,g 15.0,4.0
# From MPC 91613
P/2013 J2 (McNaught),e,15.5341,289.4250,37.7326,6.223253,0.0634860,0.65753476,170.0440,12/27.0/2020,2000,g 13.0,4.0
# From MPC 86229
P/2013 N3 (PANSTARRS),e,2.1733,17.4879,323.8623,7.390967,0.0490515,0.59311323,122.9637,12/27.0/2020,2000,g 13.0,4.0
# From MPC 85834
P/2013 N5 (PANSTARRS),e,23.4237,187.1656,176.8871,6.799229,0.0555923,0.73186733,152.0302,12/27.0/2020,2000,g 17.0,4.0
# From MPC 85834
P/2013 P1 (PANSTARRS),e,18.7210,160.6152,138.1066,8.569014,0.0392923,0.60606309,112.2612,12/27.0/2020,2000,g 12.0,4.0
# From MPC 94671
P/2013 R3 (Catalina-PANSTARRS),e,0.8654,342.0005,11.1599,3.033939,0.1865064,0.27509243,140.1076,12/27.0/2020,2000,g 14.0,4.0
# From unp
P/2013 R3-A (Catalina-PANSTARRS),e,0.8648,341.9674,11.1988,3.033797,0.1865195,0.27506186,140.1402,12/27.0/2020,2000,g  9.0,4.0
# From MPEC 2015-M77
P/2013 R3-B (Catalina-PANSTARRS),e,0.8660,342.0232,11.1338,3.034015,0.1864994,0.27510748,140.0901,12/27.0/2020,2000,g  9.0,4.0
# From MPC 85835
P/2013 T1 (PANSTARRS),e,24.2768,10.0876,346.0818,5.861305,0.0694564,0.62364893,187.8444,12/27.0/2020,2000,g 16.5,4.0
# From MPC 86643
P/2013 T2 (Schwartz),e,9.4560,0.8151,345.4868,3.489497,0.1512028,0.50118567,59.3315,12/27.0/2020,2000,g 16.0,4.0
# From MPC 91613
P/2013 W1 (PANSTARRS),e,4.6954,117.8477,1.2924,3.490923,0.1511102,0.59283701,16.2736,12/27.0/2020,2000,g 17.5,4.0
# From MPC111767
C/2013 X1 (PANSTARRS),h,04/19.4402/2016,163.1945,131.5707,165.1743,1.000460,1.323714,2000,10.5,2.0
# From MPC101095
P/2013 YG46 (Spacewatch),e,7.8558,48.8640,242.5034,3.276330,0.1661968,0.45490924,237.0103,12/27.0/2020,2000,g 10.0,4.0
# From MPC 89728
P/2014 A2 (Hill),e,24.5410,106.6292,356.2342,5.926354,0.0683160,0.64543841,179.6595,12/27.0/2020,2000,g 15.0,4.0
# From MPC 92981
P/2014 A3 (PANSTARRS),e,13.6824,230.1663,212.9805,4.628848,0.0989680,0.24699796,276.7258,12/27.0/2020,2000,g 12.0,4.0
# From MPC119994
C/2014 B1 (Schwartz),e,28.4064,161.4135,345.7745,8883,0.0000012,0.99892451,0.0000,09/08.8131/2017,2000,g  4.0,4.0
# From MPC102095
P/2014 C1 (TOTAS),e,2.6861,167.7631,24.0391,3.040298,0.1859216,0.44773000,115.9375,12/27.0/2020,2000,g 15.5,4.0
# From MPC 91614
P/2014 E1 (Larson),e,15.9765,39.0281,186.0288,3.711625,0.1378345,0.42345829,331.7121,12/27.0/2020,2000,g 14.0,4.0
# From MPC 94280
C/2014 F3 (Sheppard-Trujillo),e,6.5878,326.7533,3.2179,15.79213,0.0157052,0.63963664,357.8069,12/27.0/2020,2000,g  6.0,4.0
# From MPC 98560
P/2014 L2 (NEOWISE),e,5.1977,149.3491,182.6460,6.303698,0.0622746,0.64812600,146.5342,12/27.0/2020,2000,g 12.0,4.0
# From MPC 90769
P/2014 L3 (Hill),e,6.2776,115.4703,178.6394,8.167621,0.0422241,0.77386788,100.0913,12/27.0/2020,2000,g 16.0,4.0
# From MPC 91614
P/2014 M4 (PANSTARRS),e,3.3355,263.2686,147.9534,5.874741,0.0692183,0.59398063,151.8729,12/27.0/2020,2000,g 15.0,4.0
# From MPC103844
P/2014 MG4 (Spacewatch-PANSTARRS),e,9.3714,311.7340,299.0958,5.011926,0.0878410,0.25973043,241.4399,12/27.0/2020,2000,g  9.5,4.0
# From MPC 98560
P/2014 O3 (PANSTARRS),e,7.8070,87.6428,204.5892,7.563261,0.0473849,0.38619426,115.7215,12/27.0/2020,2000,g 10.5,4.0
# From MPEC 2020-AA5
C/2014 OE4 (PANSTARRS),h,12/12.8536/2016,81.3162,240.4135,65.8817,1.003035,6.248955,2000,11.0,2.0
# From MPC115880
C/2014 R3 (PANSTARRS),e,90.9202,334.0946,113.4476,12088,0.0000007,0.99939819,0.0000,08/08.8896/2016,2000,g  6.5,4.0
# From MPC 91615
P/2014 R5 (Lemmon-PANSTARRS),e,1.0883,126.5564,213.7233,4.056503,0.1206359,0.41357004,287.6136,12/27.0/2020,2000,g 15.0,4.0
# From MPC104790
C/2014 S2 (PANSTARRS),e,64.5151,8.1519,87.3021,169.7465,0.0004457,0.98774461,0.0000,12/09.0778/2015,2000,g 10.0,4.0
# From MPC 91616
P/2014 U4 (PANSTARRS),e,6.4289,11.8914,347.7358,3.506936,0.1500763,0.46503144,352.7211,12/27.0/2020,2000,g 18.0,4.0
# From MPC 95211
P/2014 V1 (PANSTARRS),e,22.5166,166.2017,177.5678,5.481376,0.0768015,0.53416576,166.2587,12/27.0/2020,2000,g 14.0,4.0
# From MPC 93586
P/2014 W1 (PANSTARRS),e,8.8384,246.2457,152.2474,4.461589,0.1045851,0.38867138,246.1769,12/27.0/2020,2000,g 15.5,4.0
# From MPC110493
C/2014 W2 (PANSTARRS),e,82.0633,69.9834,84.9378,564.2498,0.0000735,0.99526103,0.0000,03/07.9628/2016,2000,g  7.5,4.0
# From MPC105542
P/2014 W4 (PANSTARRS),e,15.2720,33.3548,67.8547,6.599288,0.0581378,0.35205584,106.0375,12/27.0/2020,2000,g 11.0,4.0
# From MPC115880
C/2014 W10 (PANSTARRS),e,82.8814,43.1045,43.6507,812.7310,0.0000425,0.99068088,0.0000,03/04.2996/2016,2000,g  8.0,4.0
# From MPC 93587
P/2014 W12 (Gibbs),e,8.5141,299.2898,36.8988,3.518887,0.1493125,0.52414773,333.9743,12/27.0/2020,2000,g 15.0,4.0
# From MPC 94281
P/2014 X1 (Elenin),e,26.0034,61.5059,33.9780,6.209940,0.0636902,0.70852903,139.2932,12/27.0/2020,2000,g 15.0,4.0
# From MPC100579
C/2014 Y1 (PANSTARRS),h,01/15.9920/2016,14.9076,19.5647,182.3235,1.001409,2.253850,2000,9.5,4.0
